#dP2020  5  9  0  0  0.00000000      97 __u+U IGS14 FIT  IAC
## 2104 518400.00000000   900.00000000 58978 0.0000000000000
+  122   C01C02C03C04C05C06C07C08C09C10C11C12C13C14C16C19C20
+        C21C22C23C24C25C26C27C28C29C30C32C33C34C35C36C37C38
+        C39C40C43C44C45C46E01E02E03E04E05E07E08E09E11E12E13
+        E14E15E18E19E21E24E25E26E27E30E31E33E36G01G02G03G04
+        G05G06G07G08G09G10G11G12G13G14G15G16G17G18G19G20G22
+        G23G24G25G26G27G28G29G30G31G32J01J02J03J07R01R02R03
+        R04R05R07R08R09R11R12R13R14R15R16R17R18R19R20R21R22
+        R23R24R26  0  0  0  0  0  0  0  0  0  0  0  0  0  0
++         0  0  0  0  0  0  0  0  0  0  0  0  0  0  0  0  0
++         0  0  0  0  0  0  0  0  0  0  0  0  0  0  0  0  0
++         0  0  0  0  0  0  0  0  0  0  0  0  0  0  0  0  0
++         0  0  0  0  0  0  0  0  0  0  0  0  0  0  0  0  0
++         0  0  0  0  0  0  0  0  0  0  0  0  0  0  0  0  0
++         0  0  0  0  0  0  0  0  0  0  0  0  0  0  0  0  0
++         0  0  0  0  0  0  0  0  0  0  0  0  0  0  0  0  0
++         0  0  0  0  0  0  0  0  0  0  0  0  0  0  0  0  0
%c M  cc GPS ccc cccc cccc cccc cccc ccccc ccccc ccccc ccccc
%c cc cc ccc ccc cccc cccc cccc cccc ccccc ccccc ccccc ccccc
%f  1.2500000  1.025000000  0.00000000000  0.000000000000000
%f  0.0000000  0.000000000  0.00000000000  0.000000000000000
%i    0    0    0    0      0      0      0      0         0
%i    0    0    0    0      0      0      0      0         0
/* INFORMATION & ANALYSIS CENTER (IAC)            FINAL DATA
/* S/V CLOCKS ARE ALIGNED TO GNSS TIME                      
/* G:C1WC2W R:C1PC2P E:C1XC5X C:C2IC6I J:C1CC2S             
/* PCV:IGS14_2101 OL/AL:FES2004  NONE     YN ORB:CoN CLK:CoN
*  2020 05 09 14  0  0.00000000
PC01 -34355.271924  24394.472068   -773.030831   -530.032964
PC02   4404.685462  41926.576969   1309.761546    362.116651
PC03 -14806.793621  39491.684883    835.976123    648.071442
PC04 -39625.598852  14409.705401   -159.558630   -225.798336
PC05  21904.720375  36038.023891    969.628636   -253.024979
PC06 -17002.686314  37970.199931   8540.119915    729.552995
PC07 -11017.193738  24428.562834 -32299.418333    -19.246152
PC08 -24693.767758  22703.141550  25434.972064   -243.389932
PC09  -7260.551591  40910.440541  -8026.995780    528.593244
PC10   4552.235377  31884.040918 -26840.130638   -938.600581
PC11 -18848.816454   6480.364563 -19457.047779   -353.917956
PC12  -9788.865692 -12836.687418 -22736.404465    368.641217
PC13  -9143.300020  24971.122331  32747.497726    426.406398
PC14 -18876.162390  -4450.637604  20121.723106    386.986679
PC16 -14127.688586  39522.299503   5041.999264   -650.465498
PC19  15008.445859  -5733.847808 -22782.830307    407.175754
PC20  19613.766512  13064.793306 -14895.708008   -881.962112
PC21 -12669.967868 -24785.574163  -2130.042084   -380.215527
PC22   1604.057227 -21625.033817 -17571.384999   -811.539612
PC23  -9956.276858  15019.416206 -21306.711681   -882.022813
PC24 -25902.230372  -6194.858637   8294.623113   -828.149875
PC25 -25169.375638   7195.492028  -9648.686768   -611.022922
PC26 -12224.821795 -14385.855533  20536.648493    674.148802
PC27   2732.842277  20492.217772  18737.175297    327.018405
PC28 -11957.097510  24916.943257   3851.728367    318.102977
PC29  19052.254466 -15512.916942  13219.114137    226.112194
PC30  15815.933393   3830.757914  22663.114647    314.308088
PC32  12817.036249  24688.029585   2167.944658   -897.244949
PC33 -15077.045261   5735.857864  22785.687752   -842.569142
PC34 -16087.590552  -3364.534018 -22563.341763   -703.824170
PC35  11192.136477 -25274.599869  -3688.584746   -853.030596
PC36  25442.874885  -6481.356692   9468.333794   -828.130832
PC37  11237.090831  14822.920654 -20788.905013   -842.566358
PC38 -18980.624416  25468.674048  27702.250218     76.902952
PC39  -9639.750673  41034.964387   2437.046483     15.486220
PC40   1008.038487  28627.992599 -30868.947823     41.881576
PC43 -19256.868638  15140.381001 -13397.338373   -186.057392
PC44  -3387.517898 -20515.333183 -18600.045536   -212.833988
PC45   9946.967107 -14937.317007  21377.804212    127.743830
PC46  26149.969423   5773.307931  -7894.123585    844.202464
PE01  -6582.474834 -19058.909906  21666.770599   -852.906603
PE02   6683.714844  19079.131047 -21630.452594    132.127624
PE03   2087.781005  29512.852003    582.234730   -296.784337
PE04 -13520.826447 -20504.531468  16532.628574   -521.917655
PE05 -10696.944998  21311.540524  17543.181148   -381.711285
PE07  17126.927268   -741.379533 -24117.984613   -379.420700
PE08  13632.153834  20243.066526 -16731.806773   6180.753489
PE09 -16982.824367    919.921559  24236.586488   6066.825962
PE11 -25464.459406   7493.937829 -13128.489972   2732.268124
PE12 -14209.787188  -9446.149362 -24188.890474   5813.986776
PE13  25341.652579  -7413.852554  13372.469880    400.709075
PE14 -16211.165792  20769.817355 -12930.211281  -1007.607628
PE15  14350.030761   9193.872784  24206.500619    867.666317
PE18   5544.234033 -27692.675604  -2308.002138  -1106.441121
PE19   -721.920503 -29477.631335  -2575.298151  -1831.068467
PE21  14096.739606 -10828.179038  23663.104860   -597.968543
PE24 -26891.453979  -4111.578948 -11658.138225   5464.814442
PE25 -14216.781200  10748.671160 -23631.558356   -510.319835
PE26  21338.213237 -19710.234948  -5678.128410   3209.273479
PE27  26861.639818   3856.839292  11826.790109    223.715696
PE30  23515.345688  16489.068131  -7199.647477   3921.173927
PE31 -23787.129320 -16210.102225   6906.027288   -472.504100
PE33   5065.020880 -20401.738629 -20829.193828   -467.489091
PE36 -21464.316303  19684.939228   5325.985744    562.423322
PG01   1978.794857 -15836.790643 -21385.130407   -376.612754
PG02 -21040.822556  14690.512137   7362.830751   -453.045674
PG03  -8312.910784 -20573.714373 -14728.689614   -170.274155
PG04   -702.950861 -25069.030140   8713.035606    -87.054479
PG05 -11504.512766  10353.622811  21461.242941    -12.350636
PG06 -25514.294425   6693.460817  -3250.249163   -268.360281
PG07 -16896.846732  -8579.252347  19102.344184   -277.173575
PG08   6401.429944 -25469.867570   2902.075134    -33.389439
PG09  -9230.450186 -18065.455776  17085.946646   -213.942800
PG10  22489.086009   9425.482021 -10720.306239   -335.661147
PG11   8547.940361 -22436.146202 -12173.457756   -282.196020
PG12   6018.729079  20806.881980 -15718.236876    119.922347
PG13 -13189.409869  21223.119902   8749.158017      8.612012
PG14  16042.743257  -8939.562577 -18771.713031    -14.162481
PG15  -3481.336732  26034.418068   1822.775070   -232.399864
PG16  10880.952457  -9933.552508  21885.684948   -156.136213
PG17 -14554.382041  -1400.255765 -21751.621749    261.956991
PG18  15475.423487   9233.425501  19525.164270    184.073052
PG19 -16140.422274   7031.351404 -20182.582816   -161.121382
PG20  22028.263650  15025.485190    817.000976    527.723569
PG22    -13.104682 -17876.982430 -19460.134211   -782.840053
PG23  -9702.575018 -17953.996306  17187.203001   -115.601511
PG24  -3087.179257  17276.697923 -20032.942553    -12.798678
PG25  15326.041493  20446.658700  -7971.485727      2.708538
PG26  19341.319784  -1313.838010  18215.046472    203.136526
PG27  12263.451270 -19647.466654  12547.065838   -289.051548
PG28 -21038.195313 -10265.774968 -11823.426552    718.849324
PG29   5246.618497  20819.964483  15575.667575   -100.323305
PG30 -24158.365348  -1058.044311  11264.221180   -216.344732
PG31  25818.380219  -7015.649052  -1757.978531    -41.261659
PG32  15423.257988     18.018661 -21531.867686    276.954989
PJ01 -25150.550709  23978.502591  28928.687378   -307.631301
PJ02 -28486.470319  16037.278883 -22176.432524     -2.767623
PJ03 -24363.595462  32166.251170  -7712.565838     -2.787981
PJ07 -25397.995232  33666.988841      2.565468     -0.013800
PR01 -12945.624080 -18612.419366  11714.744585     61.257091
PR02 -11015.567526   1466.377369  23002.465882    425.834962
PR03  -2654.947339  18132.327977  17813.168116     14.700113
PR04   7226.645805  24326.579994   2621.302832     48.503607
PR05  12899.960880  16892.575127 -14101.962452     50.152356
PR07   2305.244668 -18500.062908 -17348.212584    -36.331003
PR08  -7244.913964 -24320.610626  -2463.720111    -52.119724
PR09  21925.030335  -2340.536217  12775.994479    131.641610
PR11  -9218.716468 -11869.827342  20635.543553    -22.986838
PR12 -22623.071416  -8255.109166   8402.276442    129.337751
PR13 -23718.488798    365.278713  -9402.297789    -38.485254
PR14 -10733.416232   8491.626941 -21520.093962     51.025984
PR15   8255.129224  11749.652464 -21065.526122    106.446509
PR16  23107.551979   7674.127771  -7833.568459     -3.396664
PR17 -15636.614015  19942.286666   2768.357022    323.455535
PR18  -4838.588698  17692.991764  17767.357444     34.761269
PR19   8139.205262   6475.171373  23288.749534    -92.513672
PR20  18223.079265 -10255.241484  14577.494302   -411.245003
PR21  15289.680965 -20092.900224  -3707.802637   -123.367663
PR22   2770.978156 -16262.849840 -19403.699962     -0.407594
PR23 -12801.256498   -421.607814 -22070.444939    304.394740
PR24 -18526.634420  10764.593735 -13821.044660     -2.322159
PR26  16784.365509  -6929.119045  17934.550840   -396.165427
EOF
